{"type": "FeatureCollection", "features": [ {"type": "Feature", "properties": {"norad_id": 17070, "name": "POLAR BEAR", "group": "nnss", "lat": -16.498255682245333, "lon": -175.99654307946062, "alt_km": 1013.6313103053681, "timestamp": "2025-12-04T03:47:54.811922+00:00", "meta": {"OBJECT_NAME": "POLAR BEAR", "OBJECT_ID": "1986-088A", "EPOCH": "2025-12-03T14:10:11.074944", "MEAN_MOTION": 13.75247908, "ECCENTRICITY": 0.004031, "INCLINATION": 89.618, "RA_OF_ASC_NODE": 184.1395, "ARG_OF_PERICENTER": 145.9018, "MEAN_ANOMALY": 268.1317, "EPHEMERIS_TYPE": 0, "CLASSIFICATION_TYPE": "U", "NORAD_CAT_ID": 17070, "ELEMENT_SET_NO": 999, "REV_AT_EPOCH": 95853, "BSTAR": 0.00015194, "MEAN_MOTION_DOT": 1.58e-06, "MEAN_MOTION_DDOT": 0}, "tle": {"line1": "1 17070U 86088A   25337.59040596  .00000158  00000+0  15194-3 0  9999", "line2": "2 17070  89.6180 184.1395 0040310 145.9018 268.1317 13.75247908958530"}}, "geometry": {"type": "Point", "coordinates": [-175.99654307946062, -16.498255682245333]}}, {"type": "Feature", "properties": {"norad_id": 18361, "name": "OSCAR 27", "group": "nnss", "lat": 83.19741675992529, "lon": -97.90832106583296, "alt_km": 1151.0134398205955, "timestamp": "2025-12-04T03:47:54.811932+00:00", "meta": {"OBJECT_NAME": "OSCAR 27", "OBJECT_ID": "1987-080A", "EPOCH": "2025-12-03T18:22:58.880064", "MEAN_MOTION": 13.44903674, "ECCENTRICITY": 0.0102384, "INCLINATION": 90.3742, "RA_OF_ASC_NODE": 78.9366, "ARG_OF_PERICENTER": 249.8578, "MEAN_ANOMALY": 109.1532, "EPHEMERIS_TYPE": 0, "CLASSIFICATION_TYPE": "U", "NORAD_CAT_ID": 18361, "ELEMENT_SET_NO": 999, "REV_AT_EPOCH": 87436, "BSTAR": 0.00021625, "MEAN_MOTION_DOT": 1.38e-06, "MEAN_MOTION_DDOT": 0}, "tle": {"line1": "1 18361U 87080A   25337.76595926  .00000138  00000+0  21625-3 0  9991", "line2": "2 18361  90.3742  78.9366 0102384 249.8578 109.1532 13.44903674874366"}}, "geometry": {"type": "Point", "coordinates": [-97.90832106583296, 83.19741675992529]}}, {"type": "Feature", "properties": {"norad_id": 18362, "name": "OSCAR 29", "group": "nnss", "lat": 56.89087907103555, "lon": -100.0142389753616, "alt_km": 1153.6611889555043, "timestamp": "2025-12-04T03:47:54.811942+00:00", "meta": {"OBJECT_NAME": "OSCAR 29", "OBJECT_ID": "1987-080B", "EPOCH": "2025-12-03T18:49:07.067712", "MEAN_MOTION": 13.44445734, "ECCENTRICITY": 0.0103699, "INCLINATION": 90.3756, "RA_OF_ASC_NODE": 79.3954, "ARG_OF_PERICENTER": 273.232, "MEAN_ANOMALY": 200.5492, "EPHEMERIS_TYPE": 0, "CLASSIFICATION_TYPE": "U", "NORAD_CAT_ID": 18362, "ELEMENT_SET_NO": 999, "REV_AT_EPOCH": 87389, "BSTAR": 0.00018228, "MEAN_MOTION_DOT": 1.17e-06, "MEAN_MOTION_DDOT": 0}, "tle": {"line1": "1 18362U 87080B   25337.78410958  .00000117  00000+0  18228-3 0  9997", "line2": "2 18362  90.3756  79.3954 0103699 273.2320 200.5492 13.44445734873892"}}, "geometry": {"type": "Point", "coordinates": [-100.0142389753616, 56.89087907103555]}}, {"type": "Feature", "properties": {"norad_id": 19070, "name": "OSCAR 23", "group": "nnss", "lat": 51.94922826317012, "lon": 15.714502456040258, "alt_km": 1275.1024984699325, "timestamp": "2025-12-04T03:47:54.811952+00:00", "meta": {"OBJECT_NAME": "OSCAR 23", "OBJECT_ID": "1988-033A", "EPOCH": "2025-12-03T15:30:12.246912", "MEAN_MOTION": 13.27784975, "ECCENTRICITY": 0.0188773, "INCLINATION": 90.3223, "RA_OF_ASC_NODE": 16.1105, "ARG_OF_PERICENTER": 205.2478, "MEAN_ANOMALY": 280.4281, "EPHEMERIS_TYPE": 0, "CLASSIFICATION_TYPE": "U", "NORAD_CAT_ID": 19070, "ELEMENT_SET_NO": 999, "REV_AT_EPOCH": 82132, "BSTAR": 0.00021239, "MEAN_MOTION_DOT": 1.13e-06, "MEAN_MOTION_DDOT": 0}, "tle": {"line1": "1 19070U 88033A   25337.64597508  .00000113  00000+0  21239-3 0  9997", "line2": "2 19070  90.3223  16.1105 0188773 205.2478 280.4281 13.27784975821328"}}, "geometry": {"type": "Point", "coordinates": [15.714502456040258, 51.94922826317012]}}, {"type": "Feature", "properties": {"norad_id": 19071, "name": "OSCAR 32", "group": "nnss", "lat": 22.861834991690195, "lon": -163.60611177465813, "alt_km": 1035.5740443683299, "timestamp": "2025-12-04T03:47:54.811962+00:00", "meta": {"OBJECT_NAME": "OSCAR 32", "OBJECT_ID": "1988-033B", "EPOCH": "2025-12-03T14:55:52.305024", "MEAN_MOTION": 13.27952096, "ECCENTRICITY": 0.0187597, "INCLINATION": 90.3226, "RA_OF_ASC_NODE": 16.241, "ARG_OF_PERICENTER": 192.1452, "MEAN_ANOMALY": 284.473, "EPHEMERIS_TYPE": 0, "CLASSIFICATION_TYPE": "U", "NORAD_CAT_ID": 19071, "ELEMENT_SET_NO": 999, "REV_AT_EPOCH": 82144, "BSTAR": 0.00018323, "MEAN_MOTION_DOT": 9.9e-07, "MEAN_MOTION_DDOT": 0}, "tle": {"line1": "1 19071U 88033B   25337.62213316  .00000099  00000+0  18323-3 0  9991", "line2": "2 19071  90.3226  16.2410 0187597 192.1452 284.4730 13.27952096821448"}}, "geometry": {"type": "Point", "coordinates": [-163.60611177465813, 22.861834991690195]}}, {"type": "Feature", "properties": {"norad_id": 19223, "name": "NOVA 2", "group": "nnss", "lat": 29.327340383512922, "lon": -101.72410111351265, "alt_km": 1180.338676029287, "timestamp": "2025-12-04T03:47:54.811976+00:00", "meta": {"OBJECT_NAME": "NOVA 2", "OBJECT_ID": "1988-052A", "EPOCH": "2025-12-03T16:45:03.489120", "MEAN_MOTION": 13.22934249, "ECCENTRICITY": 0.0031308, "INCLINATION": 89.9873, "RA_OF_ASC_NODE": 78.2836, "ARG_OF_PERICENTER": 41.2492, "MEAN_ANOMALY": 77.9771, "EPHEMERIS_TYPE": 0, "CLASSIFICATION_TYPE": "U", "NORAD_CAT_ID": 19223, "ELEMENT_SET_NO": 999, "REV_AT_EPOCH": 80828, "BSTAR": 0.00015875, "MEAN_MOTION_DOT": 7.6e-07, "MEAN_MOTION_DDOT": 0}, "tle": {"line1": "1 19223U 88052A   25337.69795705  .00000076  00000+0  15875-3 0  9999", "line2": "2 19223  89.9873  78.2836 0031308  41.2492  77.9771 13.22934249808287"}}, "geometry": {"type": "Point", "coordinates": [-101.72410111351265, 29.327340383512922]}}, {"type": "Feature", "properties": {"norad_id": 19419, "name": "OSCAR 25", "group": "nnss", "lat": -20.031727299872824, "lon": 20.228728234247505, "alt_km": 1079.1783210228687, "timestamp": "2025-12-04T03:47:54.811986+00:00", "meta": {"OBJECT_NAME": "OSCAR 25", "OBJECT_ID": "1988-074A", "EPOCH": "2025-12-03T16:00:26.803296", "MEAN_MOTION": 13.42620611, "ECCENTRICITY": 0.0094222, "INCLINATION": 90.0356, "RA_OF_ASC_NODE": 20.214, "ARG_OF_PERICENTER": 272.2051, "MEAN_ANOMALY": 213.6208, "EPHEMERIS_TYPE": 0, "CLASSIFICATION_TYPE": "U", "NORAD_CAT_ID": 19419, "ELEMENT_SET_NO": 999, "REV_AT_EPOCH": 82518, "BSTAR": 0.00025406, "MEAN_MOTION_DOT": 1.56e-06, "MEAN_MOTION_DDOT": 0}, "tle": {"line1": "1 19419U 88074A   25337.66697689  .00000156  00000+0  25406-3 0  9999", "line2": "2 19419  90.0356  20.2140 0094222 272.2051 213.6208 13.42620611825188"}}, "geometry": {"type": "Point", "coordinates": [20.228728234247505, -20.031727299872824]}}, {"type": "Feature", "properties": {"norad_id": 19420, "name": "OSCAR 31", "group": "nnss", "lat": -43.42244284151297, "lon": -159.4709878269665, "alt_km": 1054.3642916803656, "timestamp": "2025-12-04T03:47:54.811996+00:00", "meta": {"OBJECT_NAME": "OSCAR 31", "OBJECT_ID": "1988-074B", "EPOCH": "2025-12-03T16:31:36.132960", "MEAN_MOTION": 13.42582331, "ECCENTRICITY": 0.009246, "INCLINATION": 90.0372, "RA_OF_ASC_NODE": 20.5625, "ARG_OF_PERICENTER": 266.2526, "MEAN_ANOMALY": 209.1114, "EPHEMERIS_TYPE": 0, "CLASSIFICATION_TYPE": "U", "NORAD_CAT_ID": 19420, "ELEMENT_SET_NO": 999, "REV_AT_EPOCH": 82529, "BSTAR": 0.00022384, "MEAN_MOTION_DOT": 1.38e-06, "MEAN_MOTION_DDOT": 0}, "tle": {"line1": "1 19420U 88074B   25337.68861265  .00000138  00000+0  22384-3 0  9998", "line2": "2 19420  90.0372  20.5625 0092460 266.2526 209.1114 13.42582331825295"}}, "geometry": {"type": "Point", "coordinates": [-159.4709878269665, -43.42244284151297]}}]}